{
  "type": "FeatureCollection",
  "features": [
    {
      "type": "Feature",
      "properties": {
        "norad_id": 34540,
        "name": "IRIDIUM 33 DEB",
        "group": "iridium-33-debris",
        "lat": 39.965622235212415,
        "lon": -45.503769233432685,
        "alt_km": 651.0829547281846,
        "timestamp": "2025-12-04T10:51:50.490579+00:00",
        "meta_object_name": "IRIDIUM 33 DEB",
        "meta_object_id": "1997-051JH",
        "meta_epoch": "2025-12-03T05:26:21.211296",
        "meta_mean_motion": 14.74981692,
        "meta_eccentricity": 0.0014801,
        "meta_inclination": 86.3092,
        "meta_ra_of_asc_node": 311.9555,
        "meta_arg_of_pericenter": 194.145,
        "meta_mean_anomaly": 180.1243,
        "meta_ephemeris_type": 0,
        "meta_classification_type": "U",
        "meta_norad_cat_id": 34540,
        "meta_element_set_no": 999,
        "meta_rev_at_epoch": 88881,
        "meta_bstar": 0.0021818,
        "meta_mean_motion_dot": 0.00014731,
        "meta_mean_motion_ddot": 0,
        "tle_line1": "1 34540U 97051JH  25337.22663439  .00014731  00000+0  21818-2 0  9990",
        "tle_line2": "2 34540  86.3092 311.9555 0014801 194.1450 180.1243 14.74981692888816"
      },
      "geometry": {
        "type": "Point",
        "coordinates": [
          -45.503769233432685,
          39.965622235212415
        ]
      }
    },
    {
      "type": "Feature",
      "properties": {
        "norad_id": 34648,
        "name": "IRIDIUM 33 DEB",
        "group": "iridium-33-debris",
        "lat": -70.77841028373929,
        "lon": -85.14021225531486,
        "alt_km": 752.2772170866783,
        "timestamp": "2025-12-04T10:51:50.490590+00:00",
        "meta_object_name": "IRIDIUM 33 DEB",
        "meta_object_id": "1997-051JZ",
        "meta_epoch": "2025-12-01T03:11:38.418720",
        "meta_mean_motion": 14.1087899,
        "meta_eccentricity": 0.01868529,
        "meta_inclination": 86.3903,
        "meta_ra_of_asc_node": 286.6295,
        "meta_arg_of_pericenter": 334.6513,
        "meta_mean_anomaly": 24.5588,
        "meta_ephemeris_type": 0,
        "meta_classification_type": "U",
        "meta_norad_cat_id": 34648,
        "meta_element_set_no": 999,
        "meta_rev_at_epoch": 84797,
        "meta_bstar": 0.0079356223,
        "meta_mean_motion_dot": 0.00016788,
        "meta_mean_motion_ddot": 0,
        "tle_line1": "1 34648U 97051JZ  25335.13308355  .00016788  00000+0  79356-2 0  9994",
        "tle_line2": "2 34648  86.3903 286.6295 0186852 334.6513  24.5588 14.10878990847973"
      },
      "geometry": {
        "type": "Point",
        "coordinates": [
          -85.14021225531486,
          -70.77841028373929
        ]
      }
    },
    {
      "type": "Feature",
      "properties": {
        "norad_id": 34651,
        "name": "IRIDIUM 33 DEB",
        "group": "iridium-33-debris",
        "lat": -79.5775428219716,
        "lon": 123.40158602813142,
        "alt_km": 746.9954741019801,
        "timestamp": "2025-12-04T10:51:50.490600+00:00",
        "meta_object_name": "IRIDIUM 33 DEB",
        "meta_object_id": "1997-051KC",
        "meta_epoch": "2025-12-02T05:19:54.206688",
        "meta_mean_motion": 14.25531146,
        "meta_eccentricity": 0.0141862,
        "meta_inclination": 86.2826,
        "meta_ra_of_asc_node": 145.0488,
        "meta_arg_of_pericenter": 237.4272,
        "meta_mean_anomaly": 121.3155,
        "meta_ephemeris_type": 0,
        "meta_classification_type": "U",
        "meta_norad_cat_id": 34651,
        "meta_element_set_no": 999,
        "meta_rev_at_epoch": 85746,
        "meta_bstar": 0.0036308,
        "meta_mean_motion_dot": 9.56e-05,
        "meta_mean_motion_ddot": 0,
        "tle_line1": "1 34651U 97051KC  25336.22215517  .00009560  00000+0  36308-2 0  9996",
        "tle_line2": "2 34651  86.2826 145.0488 0141862 237.4272 121.3155 14.25531146857462"
      },
      "geometry": {
        "type": "Point",
        "coordinates": [
          123.40158602813142,
          -79.5775428219716
        ]
      }
    },
    {
      "type": "Feature",
      "properties": {
        "norad_id": 34652,
        "name": "IRIDIUM 33 DEB",
        "group": "iridium-33-debris",
        "lat": -31.389008501228513,
        "lon": -18.551206736801426,
        "alt_km": 673.9954605484063,
        "timestamp": "2025-12-04T10:51:50.490611+00:00",
        "meta_object_name": "IRIDIUM 33 DEB",
        "meta_object_id": "1997-051KD",
        "meta_epoch": "2025-12-02T12:03:44.445600",
        "meta_mean_motion": 14.61898676,
        "meta_eccentricity": 0.00270627,
        "meta_inclination": 86.3312,
        "meta_ra_of_asc_node": 344.5601,
        "meta_arg_of_pericenter": 334.9096,
        "meta_mean_anomaly": 177.4047,
        "meta_ephemeris_type": 0,
        "meta_classification_type": "U",
        "meta_norad_cat_id": 34652,
        "meta_element_set_no": 999,
        "meta_rev_at_epoch": 88334,
        "meta_bstar": 0.0012168376,
        "meta_mean_motion_dot": 6.139e-05,
        "meta_mean_motion_ddot": 0,
        "tle_line1": "1 34652U 97051KD  25336.50259775  .00006139  00000+0  12168-2 0  9999",
        "tle_line2": "2 34652  86.3312 344.5601 0027062 334.9096 177.4047 14.61898676883341"
      },
      "geometry": {
        "type": "Point",
        "coordinates": [
          -18.551206736801426,
          -31.389008501228513
        ]
      }
    },
    {
      "type": "Feature",
      "properties": {
        "norad_id": 34690,
        "name": "IRIDIUM 33 DEB",
        "group": "iridium-33-debris",
        "lat": 37.600372654633624,
        "lon": 43.388007289252904,
        "alt_km": 698.5607197378758,
        "timestamp": "2025-12-04T10:51:50.490622+00:00",
        "meta_object_name": "IRIDIUM 33 DEB",
        "meta_object_id": "1997-051KM",
        "meta_epoch": "2025-12-03T11:52:36.056064",
        "meta_mean_motion": 14.55037039,
        "meta_eccentricity": 0.0011766,
        "meta_inclination": 86.3793,
        "meta_ra_of_asc_node": 41.009,
        "meta_arg_of_pericenter": 56.8306,
        "meta_mean_anomaly": 7.0908,
        "meta_ephemeris_type": 0,
        "meta_classification_type": "U",
        "meta_norad_cat_id": 34690,
        "meta_element_set_no": 999,
        "meta_rev_at_epoch": 87960,
        "meta_bstar": 0.00070543794,
        "meta_mean_motion_dot": 3.062e-05,
        "meta_mean_motion_ddot": 0,
        "tle_line1": "1 34690U 97051KM  25337.49486176  .00003062  00000+0  70544-3 0  9992",
        "tle_line2": "2 34690  86.3793  41.0090 0011766  56.8306   7.0908 14.55037039879604"
      },
      "geometry": {
        "type": "Point",
        "coordinates": [
          43.388007289252904,
          37.600372654633624
        ]
      }
    },
    {
      "type": "Feature",
      "properties": {
        "norad_id": 34693,
        "name": "IRIDIUM 33 DEB",
        "group": "iridium-33-debris",
        "lat": 60.74557551981243,
        "lon": 121.30747082303395,
        "alt_km": 479.1855349796497,
        "timestamp": "2025-12-04T10:51:50.490632+00:00",
        "meta_object_name": "IRIDIUM 33 DEB",
        "meta_object_id": "1997-051KQ",
        "meta_epoch": "2025-12-03T09:49:19.549920",
        "meta_mean_motion": 15.24618598,
        "meta_eccentricity": 0.0016087,
        "meta_inclination": 86.3049,
        "meta_ra_of_asc_node": 308.4487,
        "meta_arg_of_pericenter": 66.5202,
        "meta_mean_anomaly": 88.8029,
        "meta_ephemeris_type": 0,
        "meta_classification_type": "U",
        "meta_norad_cat_id": 34693,
        "meta_element_set_no": 999,
        "meta_rev_at_epoch": 88772,
        "meta_bstar": 0.0053871746,
        "meta_mean_motion_dot": 0.00135539,
        "meta_mean_motion_ddot": 0,
        "tle_line1": "1 34693U 97051KQ  25337.40925405  .00135539  00000+0  53872-2 0  9998",
        "tle_line2": "2 34693  86.3049 308.4487 0016087  66.5202  88.8029 15.24618598887720"
      },
      "geometry": {
        "type": "Point",
        "coordinates": [
          121.30747082303395,
          60.74557551981243
        ]
      }
    },
    {
      "type": "Feature",
      "properties": {
        "norad_id": 34696,
        "name": "IRIDIUM 33 DEB",
        "group": "iridium-33-debris",
        "lat": -68.24076434297984,
        "lon": -139.00263342872498,
        "alt_km": 654.5659597837948,
        "timestamp": "2025-12-04T10:51:50.490642+00:00",
        "meta_object_name": "IRIDIUM 33 DEB",
        "meta_object_id": "1997-051KT",
        "meta_epoch": "2025-12-03T04:28:11.099712",
        "meta_mean_motion": 14.64210204,
        "meta_eccentricity": 0.0074906,
        "meta_inclination": 86.1858,
        "meta_ra_of_asc_node": 31.9639,
        "meta_arg_of_pericenter": 199.8052,
        "meta_mean_anomaly": 216.5408,
        "meta_ephemeris_type": 0,
        "meta_classification_type": "U",
        "meta_norad_cat_id": 34696,
        "meta_element_set_no": 999,
        "meta_rev_at_epoch": 86533,
        "meta_bstar": 0.0085473,
        "meta_mean_motion_dot": 0.00047152,
        "meta_mean_motion_ddot": 0,
        "tle_line1": "1 34696U 97051KT  25337.18623958  .00047152  00000+0  85473-2 0  9999",
        "tle_line2": "2 34696  86.1858  31.9639 0074906 199.8052 216.5408 14.64210204865332"
      },
      "geometry": {
        "type": "Point",
        "coordinates": [
          -139.00263342872498,
          -68.24076434297984
        ]
      }
    }
  ]
}